GLOBALSTAR M068         
1 32266U 07048D   25223.50017918 -.00000095  00000+0  47629-4 0  9999
2 32266  51.9879 133.6439 0000544 288.6390 242.1850 12.62826331824547
GLOBALSTAR M079         
1 37188U 10054A   25223.59538170 -.00000078  00000+0  14424-3 0  9992
2 37188  52.0063 331.1167 0000878  93.8161 280.5349 12.62265829683458
GLOBALSTAR M074         
1 37189U 10054B   25223.54275860 -.00000086  00000+0  96650-4 0  9993
2 37189  52.0040 330.5927 0000806 116.6112 256.9492 12.62266853684053
GLOBALSTAR M076         
1 37190U 10054C   25223.56889786 -.00000090  00000+0  74416-4 0  9996
2 37190  52.0053 330.6879 0000958 105.8234 267.2145 12.62264341683777
GLOBALSTAR M077         
1 37191U 10054D   25223.49573008 -.00000077  00000+0  14748-3 0  9992
2 37191  52.0075 287.7796 0000508 120.7903 343.1779 12.62322736684133
GLOBALSTAR M075         
1 37192U 10054E   25223.59665840 -.00000095  00000+0  50679-4 0  9994
2 37192  51.9972  12.8275 0000806  94.4086 345.2358 12.62266580682843
GLOBALSTAR M073         
1 37193U 10054F   25223.42353880 -.00000077  00000+0  15110-3 0  9995
2 37193  52.0062 287.2183 0000615 107.4940 265.4707 12.62261727684812
GLOBALSTAR M083         
1 37739U 11033A   25223.35829532 -.00000109  00000+0 -28068-4 0  9997
2 37739  51.9841 236.0731 0000274  68.6053 306.0334 12.62274997653824
GLOBALSTAR M088         
1 37740U 11033B   25223.52457878 -.00000092  00000+0  67420-4 0  9993
2 37740  52.0209 141.2405 0000456  40.5511 130.9691 12.62267014649389
GLOBALSTAR M091         
1 37741U 11033C   25223.45871432 -.00000084  00000+0  11238-3 0  9998
2 37741  51.9994 104.8627 0000774  42.4723 130.6085 12.62269662650162
GLOBALSTAR M085         
1 37742U 11033D   25223.80613700 -.00000113  00000+0 -54051-4 0  9995
2 37742  52.0131  54.8259 0000864  63.0333 309.7716 12.62263937651215
GLOBALSTAR M081         
1 37743U 11033E   25223.85253434 -.00000093  00000+0  57649-4 0  9997
2 37743  51.9962  57.4750 0001005  72.6011  29.7251 12.62267550651250
GLOBALSTAR M089         
1 37744U 11033F   25223.56973125 -.00000110  00000+0 -36881-4 0  9998
2 37744  51.9951  12.5523 0000952 109.8684 327.7662 12.62265650651681
GLOBALSTAR M084         
1 38040U 11080A   25223.33186339 -.00000101  00000+0  16863-4 0  9995
2 38040  51.9985 240.5960 0000531 136.9657 238.5865 12.62267944629632
GLOBALSTAR M080         
1 38041U 11080B   25223.81267020 -.00000103  00000+0  56369-5 0  9994
2 38041  52.0037 240.7440 0000229 289.7386 240.9971 12.62268191629953
GLOBALSTAR M082         
1 38042U 11080C   25223.35152456 -.00000119  00000+0 -86170-4 0  9990
2 38042  52.0053 197.6120 0000419 343.4161 181.7238 12.62267824630465
GLOBALSTAR M092         
1 38043U 11080D   25223.45022892 -.00000085  00000+0  10374-3 0  9995
2 38043  52.0086 287.6949 0000470 125.4756 247.8855 12.62265620628936
GLOBALSTAR M090         
1 38044U 11080E   25223.61686804 -.00000113  00000+0 -54138-4 0  9993
2 38044  52.0103 190.6585 0000407  35.6976 136.3264 12.62261564630619
GLOBALSTAR M086         
1 38045U 11080F   25223.64256645 -.00000112  00000+0 -46312-4 0  9997
2 38045  51.9876 191.0132 0001373  80.8069  90.4197 12.62275914630569
GLOBALSTAR M097         
1 39072U 13005A   25223.39424627 -.00000104  00000+0 -25853-5 0  9995
2 39072  52.0047 106.3749 0000820  57.3201 302.7745 12.62265598577787
GLOBALSTAR M093         
1 39073U 13005B   25223.36803943 -.00000075  00000+0  16123-3 0  9999
2 39073  52.0103  99.6820 0001063  50.6488 309.4473 12.62225822577731
GLOBALSTAR M094         
1 39074U 13005C   25223.60564186 -.00000110  00000+0 -37337-4 0  9992
2 39074  51.9977  13.3839 0000955  80.1733 279.9241 12.62263130579372
GLOBALSTAR M096         
1 39075U 13005D   25223.85626861 -.00000101  00000+0  15816-4 0  9996
2 39075  52.0077  61.1783 0000955  61.8933 298.2030 12.62266180578673
GLOBALSTAR M078         
1 39076U 13005E   25223.51330369 -.00000001  00000+0  57144-3 0  9993
2 39076  51.9864 146.6584 0000782 335.2607  24.8222 12.62260590577111
GLOBALSTAR M095         
1 39077U 13005F   25223.46006573 -.00000090  00000+0  75562-4 0  9998
2 39077  51.9793 143.9868 0000808  14.4036 345.6853 12.62268448576752
GLOBALSTAR M087         
1 52888U 22064A   25223.47514862 -.00000079  00000+0  14021-3 0  9993
2 52888  51.9997 285.3698 0000346  94.4872 265.6034 12.62300855152029
